SHENZHOU-22             
1 66645U 25272A   25342.61491639  .00028320  00000+0  35728-3 0  9992
2 66645  41.4682  41.7451 0009131 357.4459   2.6332 15.58905517263000
CZ-2F R/B               
1 66646U 25272B   25341.54184061  .11903621  80762-5  15075-3 0  9992
2 66646  41.4535  41.9834 0022140 229.6731 130.2205 16.47453798  2009
SOYUZ-MS 28             
1 66664U 25275A   25342.54239145  .00012445  00000+0  23028-3 0  9991
2 66664  51.6307 163.2617 0003393 220.7658 139.3077 15.49420853  1288
1998-067XS              
1 66906U 98067XS  25342.53960188  .00030090  00000+0  52844-3 0  9990
2 66906  51.6299 163.2435 0004070 183.7827 176.3132 15.50249516   968
1998-067XT              
1 66907U 98067XT  25342.53868485  .00068077  00000+0  11598-2 0  9994
2 66907  51.6299 163.2377 0004942 202.7949 157.2822 15.50728500   968
1998-067XU              
1 66908U 98067XU  25342.60294889  .00064615  00000+0  10999-2 0  9992
2 66908  51.6294 162.9167 0005143 202.1704 157.9063 15.50774850   978
SILVERSAT               
1 66909U 98067XV  25342.53840151  .00074541  00000+0  12627-2 0  9993
2 66909  51.6295 163.2358 0004982 203.4161 156.6602 15.50849748   960
1998-067XW              
1 66910U 98067XW  25342.53736869  .00067606  00000+0  11383-2 0  9997
2 66910  51.6294 163.2290 0005881 187.8231 172.2667 15.51059789   962
1998-067XX              
1 66911U 98067XX  25342.53715565  .00078611  00000+0  13147-2 0  9996
2 66911  51.6292 163.2276 0005774 188.5906 171.4985 15.51182897   953
1998-067XY              
1 66912U 98067XY  25342.53900980  .00054705  00000+0  94066-3 0  9992
2 66912  51.6298 163.2400 0005004 201.6566 158.4212 15.50562225   958
