CCSDS_OMM_VERS = 2.0
CREATION_DATE  = 
ORIGINATOR     = 

OBJECT_NAME    = SHENZHOU-22
OBJECT_ID      = 2025-272A
CENTER_NAME    = EARTH
REF_FRAME      = TEME
TIME_SYSTEM    = UTC
MEAN_ELEMENT_THEORY = SGP/SGP4

EPOCH          = 2025-12-08T14:45:28.776096
MEAN_MOTION    = 15.58905517
ECCENTRICITY   = .00091311
INCLINATION    = 41.4682
RA_OF_ASC_NODE = 41.7451
ARG_OF_PERICENTER = 357.4459
MEAN_ANOMALY   = 2.6332

EPHEMERIS_TYPE = 0
CLASSIFICATION_TYPE = U
NORAD_CAT_ID   = 66645
ELEMENT_SET_NO = 999
REV_AT_EPOCH   = 26300
BSTAR          = .3572809E-3
MEAN_MOTION_DOT = .2832E-3
MEAN_MOTION_DDOT = 0

CCSDS_OMM_VERS = 2.0
CREATION_DATE  = 
ORIGINATOR     = 

OBJECT_NAME    = CZ-2F R/B
OBJECT_ID      = 2025-272B
CENTER_NAME    = EARTH
REF_FRAME      = TEME
TIME_SYSTEM    = UTC
MEAN_ELEMENT_THEORY = SGP/SGP4

EPOCH          = 2025-12-07T13:00:15.028704
MEAN_MOTION    = 16.47453798
ECCENTRICITY   = .002214
INCLINATION    = 41.4535
RA_OF_ASC_NODE = 41.9834
ARG_OF_PERICENTER = 229.6731
MEAN_ANOMALY   = 130.2205

EPHEMERIS_TYPE = 0
CLASSIFICATION_TYPE = U
NORAD_CAT_ID   = 66646
ELEMENT_SET_NO = 999
REV_AT_EPOCH   = 200
BSTAR          = .15075E-3
MEAN_MOTION_DOT = .11903621E+0
MEAN_MOTION_DDOT = .80762E-5

CCSDS_OMM_VERS = 2.0
CREATION_DATE  = 
ORIGINATOR     = 

OBJECT_NAME    = SOYUZ-MS 28
OBJECT_ID      = 2025-275A
CENTER_NAME    = EARTH
REF_FRAME      = TEME
TIME_SYSTEM    = UTC
MEAN_ELEMENT_THEORY = SGP/SGP4

EPOCH          = 2025-12-08T13:01:02.621280
MEAN_MOTION    = 15.49420853
ECCENTRICITY   = .00033936
INCLINATION    = 51.6307
RA_OF_ASC_NODE = 163.2617
ARG_OF_PERICENTER = 220.7658
MEAN_ANOMALY   = 139.3077

EPHEMERIS_TYPE = 0
CLASSIFICATION_TYPE = U
NORAD_CAT_ID   = 66664
ELEMENT_SET_NO = 999
REV_AT_EPOCH   = 128
BSTAR          = .23027995E-3
MEAN_MOTION_DOT = .12445E-3
MEAN_MOTION_DDOT = 0

CCSDS_OMM_VERS = 2.0
CREATION_DATE  = 
ORIGINATOR     = 

OBJECT_NAME    = 1998-067XS
OBJECT_ID      = 1998-067XS
CENTER_NAME    = EARTH
REF_FRAME      = TEME
TIME_SYSTEM    = UTC
MEAN_ELEMENT_THEORY = SGP/SGP4

EPOCH          = 2025-12-08T12:57:01.602432
MEAN_MOTION    = 15.50249516
ECCENTRICITY   = .000407
INCLINATION    = 51.6299
RA_OF_ASC_NODE = 163.2435
ARG_OF_PERICENTER = 183.7827
MEAN_ANOMALY   = 176.3132

EPHEMERIS_TYPE = 0
CLASSIFICATION_TYPE = U
NORAD_CAT_ID   = 66906
ELEMENT_SET_NO = 999
REV_AT_EPOCH   = 96
BSTAR          = .52843815E-3
MEAN_MOTION_DOT = .3009E-3
MEAN_MOTION_DDOT = 0

CCSDS_OMM_VERS = 2.0
CREATION_DATE  = 
ORIGINATOR     = 

OBJECT_NAME    = 1998-067XT
OBJECT_ID      = 1998-067XT
CENTER_NAME    = EARTH
REF_FRAME      = TEME
TIME_SYSTEM    = UTC
MEAN_ELEMENT_THEORY = SGP/SGP4

EPOCH          = 2025-12-08T12:55:42.371040
MEAN_MOTION    = 15.50728500
ECCENTRICITY   = .00049427
INCLINATION    = 51.6299
RA_OF_ASC_NODE = 163.2377
ARG_OF_PERICENTER = 202.7949
MEAN_ANOMALY   = 157.2822

EPHEMERIS_TYPE = 0
CLASSIFICATION_TYPE = U
NORAD_CAT_ID   = 66907
ELEMENT_SET_NO = 999
REV_AT_EPOCH   = 96
BSTAR          = .115984E-2
MEAN_MOTION_DOT = .68077E-3
MEAN_MOTION_DDOT = 0

CCSDS_OMM_VERS = 2.0
CREATION_DATE  = 
ORIGINATOR     = 

OBJECT_NAME    = 1998-067XU
OBJECT_ID      = 1998-067XU
CENTER_NAME    = EARTH
REF_FRAME      = TEME
TIME_SYSTEM    = UTC
MEAN_ELEMENT_THEORY = SGP/SGP4

EPOCH          = 2025-12-08T14:28:14.784096
MEAN_MOTION    = 15.50774850
ECCENTRICITY   = .00051439
INCLINATION    = 51.6294
RA_OF_ASC_NODE = 162.9167
ARG_OF_PERICENTER = 202.1704
MEAN_ANOMALY   = 157.9063

EPHEMERIS_TYPE = 0
CLASSIFICATION_TYPE = U
NORAD_CAT_ID   = 66908
ELEMENT_SET_NO = 999
REV_AT_EPOCH   = 97
BSTAR          = .10998986E-2
MEAN_MOTION_DOT = .64615E-3
MEAN_MOTION_DDOT = 0

CCSDS_OMM_VERS = 2.0
CREATION_DATE  = 
ORIGINATOR     = 

OBJECT_NAME    = SILVERSAT
OBJECT_ID      = 1998-067XV
CENTER_NAME    = EARTH
REF_FRAME      = TEME
TIME_SYSTEM    = UTC
MEAN_ELEMENT_THEORY = SGP/SGP4

EPOCH          = 2025-12-08T12:55:17.890464
MEAN_MOTION    = 15.50849748
ECCENTRICITY   = .00049826
INCLINATION    = 51.6295
RA_OF_ASC_NODE = 163.2358
ARG_OF_PERICENTER = 203.4161
MEAN_ANOMALY   = 156.6602

EPHEMERIS_TYPE = 0
CLASSIFICATION_TYPE = U
NORAD_CAT_ID   = 66909
ELEMENT_SET_NO = 999
REV_AT_EPOCH   = 96
BSTAR          = .1262733E-2
MEAN_MOTION_DOT = .74541E-3
MEAN_MOTION_DDOT = 0

CCSDS_OMM_VERS = 2.0
CREATION_DATE  = 
ORIGINATOR     = 

OBJECT_NAME    = 1998-067XW
OBJECT_ID      = 1998-067XW
CENTER_NAME    = EARTH
REF_FRAME      = TEME
TIME_SYSTEM    = UTC
MEAN_ELEMENT_THEORY = SGP/SGP4

EPOCH          = 2025-12-08T12:53:48.654816
MEAN_MOTION    = 15.51059789
ECCENTRICITY   = .0005881
INCLINATION    = 51.6294
RA_OF_ASC_NODE = 163.2290
ARG_OF_PERICENTER = 187.8231
MEAN_ANOMALY   = 172.2667

EPHEMERIS_TYPE = 0
CLASSIFICATION_TYPE = U
NORAD_CAT_ID   = 66910
ELEMENT_SET_NO = 999
REV_AT_EPOCH   = 96
BSTAR          = .11382516E-2
MEAN_MOTION_DOT = .67606E-3
MEAN_MOTION_DDOT = 0

CCSDS_OMM_VERS = 2.0
CREATION_DATE  = 
ORIGINATOR     = 

OBJECT_NAME    = 1998-067XX
OBJECT_ID      = 1998-067XX
CENTER_NAME    = EARTH
REF_FRAME      = TEME
TIME_SYSTEM    = UTC
MEAN_ELEMENT_THEORY = SGP/SGP4

EPOCH          = 2025-12-08T12:53:30.248160
MEAN_MOTION    = 15.51182897
ECCENTRICITY   = .00057745
INCLINATION    = 51.6292
RA_OF_ASC_NODE = 163.2276
ARG_OF_PERICENTER = 188.5906
MEAN_ANOMALY   = 171.4985

EPHEMERIS_TYPE = 0
CLASSIFICATION_TYPE = U
NORAD_CAT_ID   = 66911
ELEMENT_SET_NO = 999
REV_AT_EPOCH   = 95
BSTAR          = .13146958E-2
MEAN_MOTION_DOT = .78611E-3
MEAN_MOTION_DDOT = 0

CCSDS_OMM_VERS = 2.0
CREATION_DATE  = 
ORIGINATOR     = 

OBJECT_NAME    = 1998-067XY
OBJECT_ID      = 1998-067XY
CENTER_NAME    = EARTH
REF_FRAME      = TEME
TIME_SYSTEM    = UTC
MEAN_ELEMENT_THEORY = SGP/SGP4

EPOCH          = 2025-12-08T12:56:10.446720
MEAN_MOTION    = 15.50562225
ECCENTRICITY   = .00050041
INCLINATION    = 51.6298
RA_OF_ASC_NODE = 163.2400
ARG_OF_PERICENTER = 201.6566
MEAN_ANOMALY   = 158.4212

EPHEMERIS_TYPE = 0
CLASSIFICATION_TYPE = U
NORAD_CAT_ID   = 66912
ELEMENT_SET_NO = 999
REV_AT_EPOCH   = 95
BSTAR          = .94066396E-3
MEAN_MOTION_DOT = .54705E-3
MEAN_MOTION_DDOT = 0

